start=new Date('2021-10-21T00:00:00.000Z').valueOf();
sats=[{"TIME_SYSTEM":"UTC","LAUNCH_DATE":"2020-08-18","RA_OF_ASC_NODE":"303.5838","REV_AT_EPOCH":"6602","CLASSIFICATION_TYPE":"U","SITE":"AFETR","MEAN_ANOMALY":"285.2911","TLE_LINE1":"1 46125U 20057J   21293.73473167 -.00001859  00000-0 -10592-3 0  9992","BSTAR":"-0.00010592000000","RCS_SIZE":"LARGE","ELEMENT_SET_NO":"999","MEAN_MOTION_DDOT":"0.0000000000000","ECCENTRICITY":"0.00013430","OBJECT_NAME":"STARLINK-1618","APOAPSIS":"548.157","EPOCH":"2021-10-20T17:38:00.816288","OBJECT_TYPE":"PAYLOAD","NORAD_CAT_ID":"46125","MEAN_ELEMENT_THEORY":"SGP4","FILE":"3175135","OBJECT_ID":"2020-057J","MEAN_MOTION":"15.06395562","CENTER_NAME":"EARTH","PERIOD":"95.592","DECAY_DATE":null,"INCLINATION":"53.0535","TLE_LINE2":"2 46125  53.0535 303.5838 0001343  74.8226 285.2911 15.06395562 66025","REF_FRAME":"TEME","PERIAPSIS":"546.297","EPHEMERIS_TYPE":"0","GP_ID":"187754797","MEAN_MOTION_DOT":"-0.00001859","COUNTRY_CODE":"US","ARG_OF_PERICENTER":"74.8226","SEMIMAJOR_AXIS":"6925.362"},{"OBJECT_TYPE":"PAYLOAD","NORAD_CAT_ID":"46126","MEAN_ELEMENT_THEORY":"SGP4","FILE":"3174382","ELEMENT_SET_NO":"999","ECCENTRICITY":"0.00013360","MEAN_MOTION_DDOT":"0.0000000000000","APOAPSIS":"548.160","OBJECT_NAME":"STARLINK-1619","EPOCH":"2021-10-20T07:27:36.783360","MEAN_ANOMALY":"283.5497","TLE_LINE1":"1 46126U 20057K   21293.31084240 -.00001551  00000-0 -85270-4 0  9992","BSTAR":"-0.00008527000000","RCS_SIZE":"LARGE","TIME_SYSTEM":"UTC","RA_OF_ASC_NODE":"305.3149","LAUNCH_DATE":"2020-08-18","CLASSIFICATION_TYPE":"U","REV_AT_EPOCH":"6470","SITE":"AFETR","ARG_OF_PERICENTER":"76.5641","SEMIMAJOR_AXIS":"6925.369","PERIAPSIS":"546.309","EPHEMERIS_TYPE":"0","GP_ID":"187714629","MEAN_MOTION_DOT":"-0.00001551","COUNTRY_CODE":"US","DECAY_DATE":null,"INCLINATION":"53.0567","TLE_LINE2":"2 46126  53.0567 305.3149 0001336  76.5641 283.5497 15.06393241 64703","REF_FRAME":"TEME","OBJECT_ID":"2020-057K","MEAN_MOTION":"15.06393241","CENTER_NAME":"EARTH","PERIOD":"95.593"},{"RCS_SIZE":"LARGE","BSTAR":"0.00003118100000","TLE_LINE1":"1 46127U 20057L   21293.69970698  .00000183  00000-0  31181-4 0  9995","MEAN_ANOMALY":"283.9560","SITE":"AFETR","REV_AT_EPOCH":"6503","CLASSIFICATION_TYPE":"U","TIME_SYSTEM":"UTC","LAUNCH_DATE":"2020-08-18","RA_OF_ASC_NODE":"283.7498","FILE":"3175135","MEAN_ELEMENT_THEORY":"SGP4","OBJECT_TYPE":"PAYLOAD","NORAD_CAT_ID":"46127","APOAPSIS":"548.344","OBJECT_NAME":"STARLINK-1621","EPOCH":"2021-10-20T16:47:34.683072","ELEMENT_SET_NO":"999","MEAN_MOTION_DDOT":"0.0000000000000","ECCENTRICITY":"0.00016520","TLE_LINE2":"2 46127  53.0538 283.7498 0001652  76.1613 283.9560 15.06404408 65034","REF_FRAME":"TEME","DECAY_DATE":null,"INCLINATION":"53.0538","CENTER_NAME":"EARTH","PERIOD":"95.592","MEAN_MOTION":"15.06404408","OBJECT_ID":"2020-057L","SEMIMAJOR_AXIS":"6925.335","ARG_OF_PERICENTER":"76.1613","COUNTRY_CODE":"US","MEAN_MOTION_DOT":"0.00000183","PERIAPSIS":"546.056","GP_ID":"187753796","EPHEMERIS_TYPE":"0"},{"NORAD_CAT_ID":"46128","OBJECT_TYPE":"PAYLOAD","FILE":"3175135","MEAN_ELEMENT_THEORY":"SGP4","EPOCH":"2021-10-20T15:51:51.534432","APOAPSIS":"548.413","OBJECT_NAME":"STARLINK-1622","MEAN_MOTION_DDOT":"0.0000000000000","ECCENTRICITY":"0.00016860","ELEMENT_SET_NO":"999","TLE_LINE1":"1 46128U 20057M   21293.66101313 -.00000733  00000-0 -30296-4 0  9992","MEAN_ANOMALY":"295.5898","RCS_SIZE":"LARGE","BSTAR":"-0.00003029600000","LAUNCH_DATE":"2020-08-18","RA_OF_ASC_NODE":"263.9229","TIME_SYSTEM":"UTC","SITE":"AFETR","REV_AT_EPOCH":"6531","CLASSIFICATION_TYPE":"U","ARG_OF_PERICENTER":"64.5265","SEMIMAJOR_AXIS":"6925.380","GP_ID":"187754547","EPHEMERIS_TYPE":"0","PERIAPSIS":"546.078","COUNTRY_CODE":"US","MEAN_MOTION_DOT":"-0.00000733","REF_FRAME":"TEME","TLE_LINE2":"2 46128  53.0549 263.9229 0001686  64.5265 295.5898 15.06389628 65310","INCLINATION":"53.0549","DECAY_DATE":null,"MEAN_MOTION":"15.06389628","OBJECT_ID":"2020-057M","PERIOD":"95.593","CENTER_NAME":"EARTH"},{"ARG_OF_PERICENTER":"73.0557","SEMIMAJOR_AXIS":"6925.377","PERIAPSIS":"546.109","GP_ID":"187755298","EPHEMERIS_TYPE":"0","MEAN_MOTION_DOT":"-0.00001595","COUNTRY_CODE":"US","DECAY_DATE":null,"INCLINATION":"53.0538","TLE_LINE2":"2 46129  53.0538 264.0371 0001635  73.0557 287.0611 15.06390872 65314","REF_FRAME":"TEME","OBJECT_ID":"2020-057N","MEAN_MOTION":"15.06390872","CENTER_NAME":"EARTH","PERIOD":"95.593","OBJECT_TYPE":"PAYLOAD","NORAD_CAT_ID":"46129","MEAN_ELEMENT_THEORY":"SGP4","FILE":"3175135","ELEMENT_SET_NO":"999","MEAN_MOTION_DDOT":"0.0000000000000","ECCENTRICITY":"0.00016350","APOAPSIS":"548.374","OBJECT_NAME":"STARLINK-1623","EPOCH":"2021-10-20T15:14:41.542656","MEAN_ANOMALY":"287.0611","TLE_LINE1":"1 46129U 20057N   21293.63520304 -.00001595  00000-0 -88202-4 0  9992","BSTAR":"-0.00008820200000","RCS_SIZE":"LARGE","TIME_SYSTEM":"UTC","LAUNCH_DATE":"2020-08-18","RA_OF_ASC_NODE":"264.0371","CLASSIFICATION_TYPE":"U","REV_AT_EPOCH":"6531","SITE":"AFETR"},{"BSTAR":"0.00001639600000","RCS_SIZE":"LARGE","MEAN_ANOMALY":"286.1490","TLE_LINE1":"1 46130U 20057P   21293.33664594 -.00000037  00000-0  16396-4 0  9995","CLASSIFICATION_TYPE":"U","REV_AT_EPOCH":"6651","SITE":"AFETR","RA_OF_ASC_NODE":"265.3749","LAUNCH_DATE":"2020-08-18","TIME_SYSTEM":"UTC","MEAN_ELEMENT_THEORY":"SGP4","FILE":"3174382","NORAD_CAT_ID":"46130","OBJECT_TYPE":"PAYLOAD","MEAN_MOTION_DDOT":"0.0000000000000","ECCENTRICITY":"0.00015400","ELEMENT_SET_NO":"999","EPOCH":"2021-10-20T08:04:46.209216","APOAPSIS":"548.274","OBJECT_NAME":"STARLINK-1624","INCLINATION":"53.0539","DECAY_DATE":null,"REF_FRAME":"TEME","TLE_LINE2":"2 46130  53.0539 265.3749 0001540  73.9668 286.1490 15.06401930 66513","PERIOD":"95.592","CENTER_NAME":"EARTH","OBJECT_ID":"2020-057P","MEAN_MOTION":"15.06401930","SEMIMAJOR_AXIS":"6925.343","ARG_OF_PERICENTER":"73.9668","MEAN_MOTION_DOT":"-0.00000037","COUNTRY_CODE":"US","EPHEMERIS_TYPE":"0","GP_ID":"187714130","PERIAPSIS":"546.141"},{"PERIAPSIS":"546.320","EPHEMERIS_TYPE":"0","GP_ID":"187754297","COUNTRY_CODE":"US","MEAN_MOTION_DOT":"-0.00001907","ARG_OF_PERICENTER":"73.9106","SEMIMAJOR_AXIS":"6925.355","MEAN_MOTION":"15.06397942","OBJECT_ID":"2020-057Q","CENTER_NAME":"EARTH","PERIOD":"95.592","TLE_LINE2":"2 46131  53.0549 283.8319 0001300  73.9106 286.2026 15.06397942 66292","REF_FRAME":"TEME","DECAY_DATE":null,"INCLINATION":"53.0549","OBJECT_NAME":"STARLINK-1625","APOAPSIS":"548.120","EPOCH":"2021-10-20T16:21:02.940192","ELEMENT_SET_NO":"999","MEAN_MOTION_DDOT":"0.0000000000000","ECCENTRICITY":"0.00013000","OBJECT_TYPE":"PAYLOAD","NORAD_CAT_ID":"46131","FILE":"3175135","MEAN_ELEMENT_THEORY":"SGP4","TIME_SYSTEM":"UTC","LAUNCH_DATE":"2020-08-18","RA_OF_ASC_NODE":"283.8319","SITE":"AFETR","CLASSIFICATION_TYPE":"U","REV_AT_EPOCH":"6629","TLE_LINE1":"1 46131U 20057Q   21293.68128403 -.00001907  00000-0 -10915-3 0  9996","MEAN_ANOMALY":"286.2026","RCS_SIZE":"LARGE","BSTAR":"-0.00010915000000"},{"RCS_SIZE":"LARGE","BSTAR":"-0.00008108600000","TLE_LINE1":"1 46132U 20057R   21293.71998159 -.00001489  00000-0 -81086-4 0  9997","MEAN_ANOMALY":"280.8778","SITE":"AFETR","REV_AT_EPOCH":"6602","CLASSIFICATION_TYPE":"U","LAUNCH_DATE":"2020-08-18","RA_OF_ASC_NODE":"303.6559","TIME_SYSTEM":"UTC","FILE":"3175135","MEAN_ELEMENT_THEORY":"SGP4","NORAD_CAT_ID":"46132","OBJECT_TYPE":"PAYLOAD","EPOCH":"2021-10-20T17:16:46.409376","OBJECT_NAME":"STARLINK-1630","APOAPSIS":"548.314","MEAN_MOTION_DDOT":"0.0000000000000","ECCENTRICITY":"0.00015870","ELEMENT_SET_NO":"999","REF_FRAME":"TEME","TLE_LINE2":"2 46132  53.0549 303.6559 0001587  79.2389 280.8778 15.06399560 66022","INCLINATION":"53.0549","DECAY_DATE":null,"CENTER_NAME":"EARTH","PERIOD":"95.592","MEAN_MOTION":"15.06399560","OBJECT_ID":"2020-057R","SEMIMAJOR_AXIS":"6925.350","ARG_OF_PERICENTER":"79.2389","COUNTRY_CODE":"US","MEAN_MOTION_DOT":"-0.00001489","GP_ID":"187755048","EPHEMERIS_TYPE":"0","PERIAPSIS":"546.116"},{"ELEMENT_SET_NO":"999","MEAN_MOTION_DDOT":"0.0000000000000","ECCENTRICITY":"0.00015360","OBJECT_NAME":"STARLINK-1637","APOAPSIS":"548.259","EPOCH":"2021-10-20T15:41:13.886016","OBJECT_TYPE":"PAYLOAD","NORAD_CAT_ID":"46133","MEAN_ELEMENT_THEORY":"SGP4","FILE":"3175135","TIME_SYSTEM":"UTC","RA_OF_ASC_NODE":"263.9551","LAUNCH_DATE":"2020-08-18","REV_AT_EPOCH":"6656","CLASSIFICATION_TYPE":"U","SITE":"AFETR","MEAN_ANOMALY":"291.6191","TLE_LINE1":"1 46133U 20057S   21293.65363294  .00000079  00000-0  24233-4 0  9990","BSTAR":"0.00002423300000","RCS_SIZE":"LARGE","PERIAPSIS":"546.131","EPHEMERIS_TYPE":"0","GP_ID":"187754798","MEAN_MOTION_DOT":"0.00000079","COUNTRY_CODE":"US","ARG_OF_PERICENTER":"68.4962","SEMIMAJOR_AXIS":"6925.330","OBJECT_ID":"2020-057S","MEAN_MOTION":"15.06405997","PERIOD":"95.592","CENTER_NAME":"EARTH","DECAY_DATE":null,"INCLINATION":"53.0531","TLE_LINE2":"2 46133  53.0531 263.9551 0001536  68.4962 291.6191 15.06405997 66565","REF_FRAME":"TEME"},{"TIME_SYSTEM":"UTC","RA_OF_ASC_NODE":"263.9436","LAUNCH_DATE":"2020-08-18","SITE":"AFETR","REV_AT_EPOCH":"6531","CLASSIFICATION_TYPE":"U","TLE_LINE1":"1 46134U 20057T   21293.65732350 -.00001564  00000-0 -86110-4 0  9998","MEAN_ANOMALY":"283.4691","RCS_SIZE":"LARGE","BSTAR":"-0.00008611000000","APOAPSIS":"548.255","OBJECT_NAME":"STARLINK-1638","EPOCH":"2021-10-20T15:46:32.750400","ELEMENT_SET_NO":"999","ECCENTRICITY":"0.00014690","MEAN_MOTION_DDOT":"0.0000000000000","OBJECT_TYPE":"PAYLOAD","NORAD_CAT_ID":"46134","FILE":"3175135","MEAN_ELEMENT_THEORY":"SGP4","MEAN_MOTION":"15.06392268","OBJECT_ID":"2020-057T","PERIOD":"95.593","CENTER_NAME":"EARTH","TLE_LINE2":"2 46134  53.0529 263.9436 0001469  76.6461 283.4691 15.06392268 65317","REF_FRAME":"TEME","DECAY_DATE":null,"INCLINATION":"53.0529","PERIAPSIS":"546.220","GP_ID":"187755539","EPHEMERIS_TYPE":"0","COUNTRY_CODE":"US","MEAN_MOTION_DOT":"-0.00001564","ARG_OF_PERICENTER":"76.6461","SEMIMAJOR_AXIS":"6925.372"}];
